[
  {
    "OBJECT_NAME": "STARLINK-5008",
    "OBJECT_ID": "22119AT",
    "EPOCH": "2025-11-11T20:31:57.798912",
    "MEAN_MOTION": 16.11033226,
    "ECCENTRICITY": 0.000764,
    "INCLINATION": 53.1782,
    "RA_OF_ASC_NODE": 9.7401,
    "ARG_OF_PERICENTER": 35.5109,
    "MEAN_ANOMALY": 324.6434,
    "EPHEMERIS_TYPE": 0,
    "CLASSIFICATION_TYPE": "U",
    "NORAD_CAT_ID": 53927,
    "ELEMENT_SET_NO": 999,
    "REV_AT_EPOCH": 17562,
    "BSTAR": 0.00088809,
    "MEAN_MOTION_DOT": 0.00917313,
    "MEAN_MOTION_DDOT": 0.0005007599999999999,
    "TLE_LINE1": "1 53927U 22119AT  25315.85553008  .00917313  50076-3  88809-3 0  9992",
    "TLE_LINE2": "2 53927  53.1782   9.7401 0007640  35.5109 324.6434 16.11033226175627",
    "COMMENT": "Grouped by shell and plane from TLE"
  }
]